TRANSPORTER-15L         
1 66676U 25276L   25358.94926962  .00012725  00000+0  64977-3 0  9995
2 66676  97.4381  70.4682 0005002 248.5272 111.5428 15.16824215  3975
TRANSPORTER-15M         
1 66677U 25276M   25359.13830797  .00015322  00000+0  76562-3 0  9997
2 66677  97.4379  70.6707 0003894 253.4318 106.6488 15.17546607  4009
TRANSPORTER-15N         
1 66678U 25276N   25359.01451616  .00030504  00000+0  15424-2 0  9992
2 66678  97.4412  70.5434 0006791  27.1119 333.0467 15.16969880  3988
TRANSPORTER-15P         
1 66679U 25276P   25359.14795735  .00004459  00000+0  23089-3 0  9997
2 66679  97.4360  70.6534 0004716 247.1948 112.8787 15.16711244  4003
TRANSPORTER-15Q         
1 66680U 25276Q   25359.14628750  .00010410  00000+0  53175-3 0  9994
2 66680  97.4407  70.6705 0004839 236.5192 123.5579 15.16864524  4004
TRANSPORTER-15R         
1 66681U 25276R   25359.14027256  .00018710  00000+0  93424-3 0  9991
2 66681  97.4331  70.6534 0004941 265.5026  94.5643 15.17524889  4000
TRANSPORTER-15S         
1 66682U 25276S   25359.01155940 -.01194712  00000+0 -69428-1 0  9995
2 66682  97.4452  70.5585 0013716 159.6506 200.5276 15.15006170  3989
TRANSPORTER-15T         
1 66683U 25276T   25359.14403896  .00007723  00000+0  39334-3 0  9993
2 66683  97.4446  70.6859 0004873 232.4694 127.6097 15.17056690  4008
TRANSPORTER-15U         
1 66684U 25276U   25359.14043459  .00012393  00000+0  62316-3 0  9994
2 66684  97.4471  70.6987 0004622 229.7769 130.3061 15.17373829  4001
TRANSPORTER-15V         
1 66685U 25276V   25359.13890178  .00016554  00000+0  82703-3 0  9997
2 66685  97.4415  70.6824 0004037 253.1785 106.9006 15.17536428  4003
TRANSPORTER-15W         
1 66686U 25276W   25358.67972055  .00060911  00000+0  29615-2 0  9999
2 66686  97.4405  70.2223 0018183 243.6801 116.2566 15.18035485  3936
TRANSPORTER-15X         
1 66687U 25276X   25359.14906661  .00014276  00000+0  72936-3 0  9991
2 66687  97.4384  70.6573 0008090  46.6765 313.5141 15.16762597  4000
