CCSDS_OMM_VERS = 2.0
CREATION_DATE  = 
ORIGINATOR     = 

OBJECT_NAME    = TRANSPORTER-15L
OBJECT_ID      = 2025-276L
CENTER_NAME    = EARTH
REF_FRAME      = TEME
TIME_SYSTEM    = UTC
MEAN_ELEMENT_THEORY = SGP/SGP4

EPOCH          = 2025-12-24T22:46:56.895168
MEAN_MOTION    = 15.16824215
ECCENTRICITY   = .0005002
INCLINATION    = 97.4381
RA_OF_ASC_NODE = 70.4682
ARG_OF_PERICENTER = 248.5272
MEAN_ANOMALY   = 111.5428

EPHEMERIS_TYPE = 0
CLASSIFICATION_TYPE = U
NORAD_CAT_ID   = 66676
ELEMENT_SET_NO = 999
REV_AT_EPOCH   = 397
BSTAR          = .64977E-3
MEAN_MOTION_DOT = .12725E-3
MEAN_MOTION_DDOT = 0

CCSDS_OMM_VERS = 2.0
CREATION_DATE  = 
ORIGINATOR     = 

OBJECT_NAME    = TRANSPORTER-15M
OBJECT_ID      = 2025-276M
CENTER_NAME    = EARTH
REF_FRAME      = TEME
TIME_SYSTEM    = UTC
MEAN_ELEMENT_THEORY = SGP/SGP4

EPOCH          = 2025-12-25T03:19:09.808608
MEAN_MOTION    = 15.17546607
ECCENTRICITY   = .0003894
INCLINATION    = 97.4379
RA_OF_ASC_NODE = 70.6707
ARG_OF_PERICENTER = 253.4318
MEAN_ANOMALY   = 106.6488

EPHEMERIS_TYPE = 0
CLASSIFICATION_TYPE = U
NORAD_CAT_ID   = 66677
ELEMENT_SET_NO = 999
REV_AT_EPOCH   = 400
BSTAR          = .76562E-3
MEAN_MOTION_DOT = .15322E-3
MEAN_MOTION_DDOT = 0

CCSDS_OMM_VERS = 2.0
CREATION_DATE  = 
ORIGINATOR     = 

OBJECT_NAME    = TRANSPORTER-15N
OBJECT_ID      = 2025-276N
CENTER_NAME    = EARTH
REF_FRAME      = TEME
TIME_SYSTEM    = UTC
MEAN_ELEMENT_THEORY = SGP/SGP4

EPOCH          = 2025-12-25T00:20:54.196224
MEAN_MOTION    = 15.16969880
ECCENTRICITY   = .0006791
INCLINATION    = 97.4412
RA_OF_ASC_NODE = 70.5434
ARG_OF_PERICENTER = 27.1119
MEAN_ANOMALY   = 333.0467

EPHEMERIS_TYPE = 0
CLASSIFICATION_TYPE = U
NORAD_CAT_ID   = 66678
ELEMENT_SET_NO = 999
REV_AT_EPOCH   = 398
BSTAR          = .15424E-2
MEAN_MOTION_DOT = .30504E-3
MEAN_MOTION_DDOT = 0

CCSDS_OMM_VERS = 2.0
CREATION_DATE  = 
ORIGINATOR     = 

OBJECT_NAME    = TRANSPORTER-15P
OBJECT_ID      = 2025-276P
CENTER_NAME    = EARTH
REF_FRAME      = TEME
TIME_SYSTEM    = UTC
MEAN_ELEMENT_THEORY = SGP/SGP4

EPOCH          = 2025-12-25T03:33:03.515040
MEAN_MOTION    = 15.16711244
ECCENTRICITY   = .0004716
INCLINATION    = 97.4360
RA_OF_ASC_NODE = 70.6534
ARG_OF_PERICENTER = 247.1948
MEAN_ANOMALY   = 112.8787

EPHEMERIS_TYPE = 0
CLASSIFICATION_TYPE = U
NORAD_CAT_ID   = 66679
ELEMENT_SET_NO = 999
REV_AT_EPOCH   = 400
BSTAR          = .23089E-3
MEAN_MOTION_DOT = .4459E-4
MEAN_MOTION_DDOT = 0

CCSDS_OMM_VERS = 2.0
CREATION_DATE  = 
ORIGINATOR     = 

OBJECT_NAME    = TRANSPORTER-15Q
OBJECT_ID      = 2025-276Q
CENTER_NAME    = EARTH
REF_FRAME      = TEME
TIME_SYSTEM    = UTC
MEAN_ELEMENT_THEORY = SGP/SGP4

EPOCH          = 2025-12-25T03:30:39.240000
MEAN_MOTION    = 15.16864524
ECCENTRICITY   = .0004839
INCLINATION    = 97.4407
RA_OF_ASC_NODE = 70.6705
ARG_OF_PERICENTER = 236.5192
MEAN_ANOMALY   = 123.5579

EPHEMERIS_TYPE = 0
CLASSIFICATION_TYPE = U
NORAD_CAT_ID   = 66680
ELEMENT_SET_NO = 999
REV_AT_EPOCH   = 400
BSTAR          = .53175E-3
MEAN_MOTION_DOT = .1041E-3
MEAN_MOTION_DDOT = 0

CCSDS_OMM_VERS = 2.0
CREATION_DATE  = 
ORIGINATOR     = 

OBJECT_NAME    = TRANSPORTER-15R
OBJECT_ID      = 2025-276R
CENTER_NAME    = EARTH
REF_FRAME      = TEME
TIME_SYSTEM    = UTC
MEAN_ELEMENT_THEORY = SGP/SGP4

EPOCH          = 2025-12-25T03:21:59.549184
MEAN_MOTION    = 15.17524889
ECCENTRICITY   = .0004941
INCLINATION    = 97.4331
RA_OF_ASC_NODE = 70.6534
ARG_OF_PERICENTER = 265.5026
MEAN_ANOMALY   = 94.5643

EPHEMERIS_TYPE = 0
CLASSIFICATION_TYPE = U
NORAD_CAT_ID   = 66681
ELEMENT_SET_NO = 999
REV_AT_EPOCH   = 400
BSTAR          = .93424E-3
MEAN_MOTION_DOT = .1871E-3
MEAN_MOTION_DDOT = 0

CCSDS_OMM_VERS = 2.0
CREATION_DATE  = 
ORIGINATOR     = 

OBJECT_NAME    = TRANSPORTER-15S
OBJECT_ID      = 2025-276S
CENTER_NAME    = EARTH
REF_FRAME      = TEME
TIME_SYSTEM    = UTC
MEAN_ELEMENT_THEORY = SGP/SGP4

EPOCH          = 2025-12-25T00:16:38.732160
MEAN_MOTION    = 15.15006170
ECCENTRICITY   = .0013716
INCLINATION    = 97.4452
RA_OF_ASC_NODE = 70.5585
ARG_OF_PERICENTER = 159.6506
MEAN_ANOMALY   = 200.5276

EPHEMERIS_TYPE = 0
CLASSIFICATION_TYPE = U
NORAD_CAT_ID   = 66682
ELEMENT_SET_NO = 999
REV_AT_EPOCH   = 398
BSTAR          = -.69428E-1
MEAN_MOTION_DOT = -.1194712E-1
MEAN_MOTION_DDOT = 0

CCSDS_OMM_VERS = 2.0
CREATION_DATE  = 
ORIGINATOR     = 

OBJECT_NAME    = TRANSPORTER-15T
OBJECT_ID      = 2025-276T
CENTER_NAME    = EARTH
REF_FRAME      = TEME
TIME_SYSTEM    = UTC
MEAN_ELEMENT_THEORY = SGP/SGP4

EPOCH          = 2025-12-25T03:27:24.966144
MEAN_MOTION    = 15.17056690
ECCENTRICITY   = .0004873
INCLINATION    = 97.4446
RA_OF_ASC_NODE = 70.6859
ARG_OF_PERICENTER = 232.4694
MEAN_ANOMALY   = 127.6097

EPHEMERIS_TYPE = 0
CLASSIFICATION_TYPE = U
NORAD_CAT_ID   = 66683
ELEMENT_SET_NO = 999
REV_AT_EPOCH   = 400
BSTAR          = .39334E-3
MEAN_MOTION_DOT = .7723E-4
MEAN_MOTION_DDOT = 0

CCSDS_OMM_VERS = 2.0
CREATION_DATE  = 
ORIGINATOR     = 

OBJECT_NAME    = TRANSPORTER-15U
OBJECT_ID      = 2025-276U
CENTER_NAME    = EARTH
REF_FRAME      = TEME
TIME_SYSTEM    = UTC
MEAN_ELEMENT_THEORY = SGP/SGP4

EPOCH          = 2025-12-25T03:22:13.548576
MEAN_MOTION    = 15.17373829
ECCENTRICITY   = .0004622
INCLINATION    = 97.4471
RA_OF_ASC_NODE = 70.6987
ARG_OF_PERICENTER = 229.7769
MEAN_ANOMALY   = 130.3061

EPHEMERIS_TYPE = 0
CLASSIFICATION_TYPE = U
NORAD_CAT_ID   = 66684
ELEMENT_SET_NO = 999
REV_AT_EPOCH   = 400
BSTAR          = .62316E-3
MEAN_MOTION_DOT = .12393E-3
MEAN_MOTION_DDOT = 0

CCSDS_OMM_VERS = 2.0
CREATION_DATE  = 
ORIGINATOR     = 

OBJECT_NAME    = TRANSPORTER-15V
OBJECT_ID      = 2025-276V
CENTER_NAME    = EARTH
REF_FRAME      = TEME
TIME_SYSTEM    = UTC
MEAN_ELEMENT_THEORY = SGP/SGP4

EPOCH          = 2025-12-25T03:20:01.113792
MEAN_MOTION    = 15.17536428
ECCENTRICITY   = .0004037
INCLINATION    = 97.4415
RA_OF_ASC_NODE = 70.6824
ARG_OF_PERICENTER = 253.1785
MEAN_ANOMALY   = 106.9006

EPHEMERIS_TYPE = 0
CLASSIFICATION_TYPE = U
NORAD_CAT_ID   = 66685
ELEMENT_SET_NO = 999
REV_AT_EPOCH   = 400
BSTAR          = .82703E-3
MEAN_MOTION_DOT = .16554E-3
MEAN_MOTION_DDOT = 0

CCSDS_OMM_VERS = 2.0
CREATION_DATE  = 
ORIGINATOR     = 

OBJECT_NAME    = TRANSPORTER-15W
OBJECT_ID      = 2025-276W
CENTER_NAME    = EARTH
REF_FRAME      = TEME
TIME_SYSTEM    = UTC
MEAN_ELEMENT_THEORY = SGP/SGP4

EPOCH          = 2025-12-24T16:18:47.855520
MEAN_MOTION    = 15.18035485
ECCENTRICITY   = .00181838
INCLINATION    = 97.4405
RA_OF_ASC_NODE = 70.2223
ARG_OF_PERICENTER = 243.6801
MEAN_ANOMALY   = 116.2566

EPHEMERIS_TYPE = 0
CLASSIFICATION_TYPE = U
NORAD_CAT_ID   = 66686
ELEMENT_SET_NO = 999
REV_AT_EPOCH   = 393
BSTAR          = .29615296E-2
MEAN_MOTION_DOT = .60911E-3
MEAN_MOTION_DDOT = 0

CCSDS_OMM_VERS = 2.0
CREATION_DATE  = 
ORIGINATOR     = 

OBJECT_NAME    = TRANSPORTER-15X
OBJECT_ID      = 2025-276X
CENTER_NAME    = EARTH
REF_FRAME      = TEME
TIME_SYSTEM    = UTC
MEAN_ELEMENT_THEORY = SGP/SGP4

EPOCH          = 2025-12-25T03:34:39.355104
MEAN_MOTION    = 15.16762597
ECCENTRICITY   = .000809
INCLINATION    = 97.4384
RA_OF_ASC_NODE = 70.6573
ARG_OF_PERICENTER = 46.6765
MEAN_ANOMALY   = 313.5141

EPHEMERIS_TYPE = 0
CLASSIFICATION_TYPE = U
NORAD_CAT_ID   = 66687
ELEMENT_SET_NO = 999
REV_AT_EPOCH   = 400
BSTAR          = .72936E-3
MEAN_MOTION_DOT = .14276E-3
MEAN_MOTION_DDOT = 0

